COMMENT,ORIGINATOR,NORAD_CAT_ID,OBJECT_NAME,OBJECT_TYPE,CLASSIFICATION_TYPE,INTLDES,EPOCH,EPOCH_MICROSECONDS,MEAN_MOTION,ECCENTRICITY,INCLINATION,RA_OF_ASC_NODE,ARG_OF_PERICENTER,MEAN_ANOMALY,EPHEMERIS_TYPE,ELEMENT_SET_NO,REV_AT_EPOCH,BSTAR,MEAN_MOTION_DOT,MEAN_MOTION_DDOT,FILE,TLE_LINE0,TLE_LINE1,TLE_LINE2,OBJECT_ID,OBJECT_NUMBER,SEMIMAJOR_AXIS,PERIOD,APOGEE,PERIGEE,DECAYED
GENERATED VIA SPACETRACK.ORG API,18 SPCS,38778,ASTRA 2F,PAYLOAD,U,12051A,2024-12-04 10:51:29,570112,1.00269862,0.000452,0.0555,255.4963,338.0076,31.3374,0,999,4467,0,1.72e-06,0,4571473,0 ASTRA 2F,1 38778U 12051A   24339.45242558  .00000172  00000-0  00000+0 0  9997,2 38778   0.0555 255.4963 0004520 338.0076  31.3374  1.00269862 44678,2012-051A,38778,42165.271,1436.124,35806.195,35768.077,0
GENERATED VIA SPACETRACK.ORG API,18 SPCS,38778,ASTRA 2F,PAYLOAD,U,12051A,2024-12-04 10:51:29,570112,1.00269862,0.000452,0.0555,255.4963,338.0076,31.3374,0,999,3552,0,1.72e-06,0,4571547,0 ASTRA 2F,1 38778U 12051A   24339.45242558  .00000172  00000-0  00000-0 0  9998,2 38778   0.0555 255.4963 0004520 338.0076  31.3374  1.00269862 35522,2012-051A,38778,42165.271,1436.124,35806.195,35768.077,0
GENERATED VIA SPACETRACK.ORG API,18 SPCS,38778,ASTRA 2F,PAYLOAD,U,12051A,2024-12-05 12:35:18,991104,1.00270155,0.0004509,0.0531,254.3474,340.4972,57.0027,0,999,3553,0,1.69e-06,0,4572528,0 ASTRA 2F,1 38778U 12051A   24340.52452536  .00000169  00000-0  00000-0 0  9993,2 38778   0.0531 254.3474 0004509 340.4972  57.0027  1.00270155 35538,2012-051A,38778,42165.189,1436.12,35806.066,35768.042,0
GENERATED VIA SPACETRACK.ORG API,18 SPCS,38778,ASTRA 2F,PAYLOAD,U,12051A,2024-12-05 20:50:38,398272,1.00270473,0.0004525,0.0522,254.0579,341.0764,180.8817,0,999,4469,0,1.69e-06,0,4572773,0 ASTRA 2F,1 38778U 12051A   24340.86849998  .00000169  00000-0  00000+0 0  9991,2 38778   0.0522 254.0579 0004525 341.0764 180.8817  1.00270473 44697,2012-051A,38778,42165.1,1436.116,35806.044,35767.885,0
GENERATED VIA SPACETRACK.ORG API,18 SPCS,38778,ASTRA 2F,PAYLOAD,U,12051A,2024-12-05 20:50:38,398272,1.00270473,0.0004525,0.0522,254.0579,341.0764,180.8817,0,999,3553,0,1.68e-06,0,4572851,0 ASTRA 2F,1 38778U 12051A   24340.86849998  .00000168  00000-0  00000-0 0  9991,2 38778   0.0522 254.0579 0004525 341.0764 180.8817  1.00270473 35530,2012-051A,38778,42165.1,1436.116,35806.044,35767.885,0
GENERATED VIA SPACETRACK.ORG API,18 SPCS,38778,ASTRA 2F,PAYLOAD,U,12051A,2024-12-06 12:36:12,399264,1.00270645,0.000454,0.0507,253.1528,342.5311,57.368,0,999,3554,0,1.67e-06,0,4573522,0 ASTRA 2F,1 38778U 12051A   24341.52514351  .00000167  00000-0  00000-0 0  9996,2 38778   0.0507 253.1528 0004540 342.5311  57.3680  1.00270645 35546,2012-051A,38778,42165.052,1436.113,35806.059,35767.774,0
GENERATED VIA SPACETRACK.ORG API,18 SPCS,38778,ASTRA 2F,PAYLOAD,U,12051A,2024-12-06 22:03:43,833312,1.00270872,0.000456,0.0498,252.7576,343.2666,199.2963,0,999,3554,0,1.67e-06,0,4573896,0 ASTRA 2F,1 38778U 12051A   24341.91925733  .00000167  00000-0  00000-0 0  9999,2 38778   0.0498 252.7576 0004560 343.2666 199.2963  1.00270872 35548,2012-051A,38778,42164.988,1436.11,35806.08,35767.626,0
GENERATED VIA SPACETRACK.ORG API,18 SPCS,38778,ASTRA 2F,PAYLOAD,U,12051A,2024-12-07 02:19:23,622816,1.00270921,0.0004578,0.0495,252.4973,343.6967,263.2168,0,999,4470,0,1.67e-06,0,4574093,0 ASTRA 2F,1 38778U 12051A   24342.09680119  .00000167  00000-0  00000+0 0  9994,2 38778   0.0495 252.4973 0004578 343.6967 263.2168  1.00270921 44702,2012-051A,38778,42164.974,1436.109,35806.142,35767.536,0
GENERATED VIA SPACETRACK.ORG API,18 SPCS,38778,ASTRA 2F,PAYLOAD,U,12051A,2024-12-07 07:28:11,532576,1.00270864,0.0004567,0.0489,252.4015,345.1807,339.2383,0,999,3555,0,1.66e-06,0,4574596,0 ASTRA 2F,1 38778U 12051A   24342.31124459  .00000166  00000-0  00000-0 0  9999,2 38778   0.0489 252.4015 0004567 345.1807 339.2383  1.00270864 35552,2012-051A,38778,42164.99,1436.11,35806.112,35767.598,0
GENERATED VIA SPACETRACK.ORG API,18 SPCS,38778,ASTRA 2F,PAYLOAD,U,12051A,2024-12-08 05:02:42,772128,1.00271205,0.0004591,0.0469,251.3414,347.4101,302.5833,0,999,4471,0,1.66e-06,0,4575453,0 ASTRA 2F,1 38778U 12051A   24343.21021727  .00000166  00000-0  00000+0 0  9992,2 38778   0.0469 251.3414 0004591 347.4101 302.5833  1.00271205 44711,2012-051A,38778,42164.895,1436.105,35806.117,35767.402,0
GENERATED VIA SPACETRACK.ORG API,18 SPCS,38778,ASTRA 2F,PAYLOAD,U,12051A,2024-12-08 05:02:42,772128,1.00271205,0.0004591,0.0469,251.3414,347.4101,302.5833,0,999,3556,0,1.66e-06,0,4575582,0 ASTRA 2F,1 38778U 12051A   24343.21021727  .00000166  00000-0  00000-0 0  9993,2 38778   0.0469 251.3414 0004591 347.4101 302.5833  1.00271205 35564,2012-051A,38778,42164.895,1436.105,35806.117,35767.402,0
GENERATED VIA SPACETRACK.ORG API,18 SPCS,38778,ASTRA 2F,PAYLOAD,U,12051A,2024-12-09 10:55:25,799808,1.00271699,0.0004631,0.0441,249.9809,350.206,30.5533,0,999,4472,0,1.66e-06,0,4576450,0 ASTRA 2F,1 38778U 12051A   24344.45515972  .00000166  00000-0  00000+0 0  9999,2 38778   0.0441 249.9809 0004631 350.2060  30.5533  1.00271699 44726,2012-051A,38778,42164.756,1436.098,35806.148,35767.095,0
GENERATED VIA SPACETRACK.ORG API,18 SPCS,38778,ASTRA 2F,PAYLOAD,U,12051A,2024-12-09 10:55:25,799808,1.00271699,0.0004631,0.0441,249.9809,350.206,30.5533,0,999,3557,0,1.66e-06,0,4576603,0 ASTRA 2F,1 38778U 12051A   24344.45515972  .00000166  00000-0  00000-0 0  9990,2 38778   0.0441 249.9809 0004631 350.2060  30.5533  1.00271699 35579,2012-051A,38778,42164.756,1436.098,35806.148,35767.095,0
GENERATED VIA SPACETRACK.ORG API,18 SPCS,38778,ASTRA 2F,PAYLOAD,U,12051A,2024-12-10 07:30:28,893888,1.00274385,0.0004732,0.0424,249.6421,352.9306,337.7792,0,999,4473,0,1.66e-06,0,4577549,0 ASTRA 2F,1 38778U 12051A   24345.31283442  .00000166  00000-0  00000+0 0  9999,2 38778   0.0424 249.6421 0004732 352.9306 337.7792  1.00274385 44733,2012-051A,38778,42164.003,1436.06,35805.82,35765.916,0
GENERATED VIA SPACETRACK.ORG API,18 SPCS,38778,ASTRA 2F,PAYLOAD,U,12051A,2024-12-10 07:30:28,893888,1.00274385,0.0004732,0.0424,249.6421,352.9306,337.7792,0,999,3558,0,1.66e-06,0,4577682,0 ASTRA 2F,1 38778U 12051A   24345.31283442  .00000166  00000-0  00000-0 0  9990,2 38778   0.0424 249.6421 0004732 352.9306 337.7792  1.00274385 35586,2012-051A,38778,42164.003,1436.06,35805.82,35765.916,0
GENERATED VIA SPACETRACK.ORG API,18 SPCS,38778,ASTRA 2F,PAYLOAD,U,12051A,2024-12-11 02:22:31,899648,1.00272485,0.0004731,0.0409,248.6534,352.836,262.6503,0,999,4474,0,1.66e-06,0,4578227,0 ASTRA 2F,1 38778U 12051A   24346.09898032  .00000166  00000-0  00000+0 0  9992,2 38778   0.0409 248.6534 0004731 352.8360 262.6503  1.00272485 44744,2012-051A,38778,42164.536,1436.087,35806.349,35766.453,0
GENERATED VIA SPACETRACK.ORG API,18 SPCS,38778,ASTRA 2F,PAYLOAD,U,12051A,2024-12-11 12:40:03,887328,1.00272525,0.0004715,0.04,248.1957,354.467,56.2833,0,999,3559,0,1.66e-06,0,4578323,0 ASTRA 2F,1 38778U 12051A   24346.52782277  .00000166  00000-0  00000-0 0  9994,2 38778   0.0400 248.1957 0004715 354.4670  56.2833  1.00272525 35594,2012-051A,38778,42164.525,1436.086,35806.27,35766.509,0
GENERATED VIA SPACETRACK.ORG API,18 SPCS,38778,ASTRA 2F,PAYLOAD,U,12051A,2024-12-12 12:40:54,407136,1.00273168,0.0004734,0.0386,246.6309,357.0932,56.4236,0,999,4476,0,1.65e-06,0,4579324,0 ASTRA 2F,1 38778U 12051A   24347.52840749  .00000165  00000-0  00000+0 0  9992,2 38778   0.0386 246.6309 0004734 357.0932  56.4236  1.00273168 44764,2012-051A,38778,42164.344,1436.077,35806.17,35766.249,0
GENERATED VIA SPACETRACK.ORG API,18 SPCS,38778,ASTRA 2F,PAYLOAD,U,12051A,2024-12-12 23:14:18,803616,1.00273404,0.0004744,0.0379,246.1723,358.1806,214.5828,0,999,3561,0,1.64e-06,0,4579739,0 ASTRA 2F,1 38778U 12051A   24347.96827319  .00000164  00000-0  00000-0 0  9998,2 38778   0.0379 246.1723 0004744 358.1806 214.5828  1.00273404 35615,2012-051A,38778,42164.278,1436.074,35806.146,35766.14,0
GENERATED VIA SPACETRACK.ORG API,18 SPCS,38778,ASTRA 2F,PAYLOAD,U,12051A,2024-12-13 14:07:42,675168,1.00273788,0.0004758,0.0373,244.3605,0.6652,77.8752,0,999,3561,0,1.63e-06,0,4580303,0 ASTRA 2F,1 38778U 12051A   24348.58868837  .00000163  00000-0  00000-0 0  9996,2 38778   0.0373 244.3605 0004758   0.6652  77.8752  1.00273788 35612,2012-051A,38778,42164.17,1436.068,35806.097,35765.974,0
GENERATED VIA SPACETRACK.ORG API,18 SPCS,38778,ASTRA 2F,PAYLOAD,U,12051A,2024-12-13 18:50:46,890816,1.00273909,0.0004765,0.037,244.2457,1.0279,148.5903,0,999,4477,0,1.63e-06,0,4580552,0 ASTRA 2F,1 38778U 12051A   24348.78526494  .00000163  00000-0  00000+0 0  9997,2 38778   0.0370 244.2457 0004765   1.0279 148.5903  1.00273909 44777,2012-051A,38778,42164.137,1436.066,35806.093,35765.91,0
GENERATED VIA SPACETRACK.ORG API,18 SPCS,38778,ASTRA 2F,PAYLOAD,U,12051A,2024-12-14 13:24:42,650208,1.00274375,0.0004764,0.0365,241.3582,4.7761,66.9812,0,999,3562,0,1.61e-06,0,4581139,0 ASTRA 2F,1 38778U 12051A   24349.55882697  .00000161  00000-0  00000-0 0  9992,2 38778   0.0365 241.3582 0004764   4.7761  66.9812  1.00274375 35627,2012-051A,38778,42164.006,1436.06,35805.958,35765.784,0
GENERATED VIA SPACETRACK.ORG API,18 SPCS,38778,ASTRA 2F,PAYLOAD,U,12051A,2024-12-14 20:04:46,433856,1.00274553,0.000477,0.0361,240.8071,5.6448,166.9563,0,999,4478,0,1.6e-06,0,4581333,0 ASTRA 2F,1 38778U 12051A   24349.83664854  .00000160  00000-0  00000+0 0  9994,2 38778   0.0361 240.8071 0004770   5.6448 166.9563  1.00274553 44788,2012-051A,38778,42163.956,1436.057,35805.933,35765.709,0
GENERATED VIA SPACETRACK.ORG API,18 SPCS,38778,ASTRA 2F,PAYLOAD,U,12051A,2024-12-14 20:04:46,433856,1.00274553,0.000477,0.0361,240.8071,5.6448,166.9563,0,999,3562,0,1.6e-06,0,4581371,0 ASTRA 2F,1 38778U 12051A   24349.83664854  .00000160  00000-0  00000-0 0  9995,2 38778   0.0361 240.8071 0004770   5.6448 166.9563  1.00274553 35621,2012-051A,38778,42163.956,1436.057,35805.933,35765.709,0
